{
  "norad_id": 57363,
  "name": "STARLINK-6356",
  "history": [
    {
      "epoch": "2026-04-10T06:00:00.999648Z",
      "apogee_km": 489.13287718684023,
      "perigee_km": 487.1393234548941,
      "latitude_deg": -4.800996194177711,
      "longitude_deg": 129.18465929612947,
      "height_km": 488.1472067429923,
      "semi_major_axis_km": 6866.273100320867,
      "eccentricity": 0.00014517,
      "inclination_deg": 43.0005,
      "raan_deg": 62.8142,
      "arg_perigee_deg": 294.0477,
      "mean_anomaly_deg": 59.0153,
      "mean_motion_rev_day": 15.25882711
    },
    {
      "epoch": "2026-04-11T20:00:01.000224Z",
      "apogee_km": 488.9243290719487,
      "perigee_km": 487.1803169838995,
      "latitude_deg": 36.73806160295661,
      "longitude_deg": -33.40847737998755,
      "height_km": 490.5082164544976,
      "semi_major_axis_km": 6866.189323027924,
      "eccentricity": 0.000127,
      "inclination_deg": 43.0003,
      "raan_deg": 53.893,
      "arg_perigee_deg": 281.861,
      "mean_anomaly_deg": 139.0803,
      "mean_motion_rev_day": 15.25910638
    },
    {
      "epoch": "2026-04-13T06:17:46.584672Z",
      "apogee_km": 488.8052415333859,
      "perigee_km": 487.25197754919463,
      "latitude_deg": 2.254652689306071e-05,
      "longitude_deg": 109.94317336135262,
      "height_km": 487.4277672671126,
      "semi_major_axis_km": 6866.16560954129,
      "eccentricity": 0.00011311,
      "inclination_deg": 43.0019,
      "raan_deg": 45.8429,
      "arg_perigee_deg": 299.0928,
      "mean_anomaly_deg": 60.981,
      "mean_motion_rev_day": 15.25918543
    },
    {
      "epoch": "2026-04-14T12:08:42.603360Z",
      "apogee_km": 488.8082550220397,
      "perigee_km": 487.2832758298391,
      "latitude_deg": -2.693824723912632e-05,
      "longitude_deg": 13.976760071344353,
      "height_km": 487.44540087420694,
      "semi_major_axis_km": 6866.18276542594,
      "eccentricity": 0.00011105,
      "inclination_deg": 43.0042,
      "raan_deg": 38.8358,
      "arg_perigee_deg": 299.6654,
      "mean_anomaly_deg": 60.4086,
      "mean_motion_rev_day": 15.25912824
    },
    {
      "epoch": "2026-04-15T03:51:18.104544Z",
      "apogee_km": 488.6682952342717,
      "perigee_km": 487.39654333443195,
      "latitude_deg": 1.5755046722397694e-05,
      "longitude_deg": 133.99720397790034,
      "height_km": 487.66198917533677,
      "semi_major_axis_km": 6866.1694192843515,
      "eccentricity": 9.261e-05,
      "inclination_deg": 43.0037,
      "raan_deg": 35.1493,
      "arg_perigee_deg": 283.3939,
      "mean_anomaly_deg": 76.6809,
      "mean_motion_rev_day": 15.25917273
    },
    {
      "epoch": "2026-04-16T11:16:29.665920Z",
      "apogee_km": 488.6745804096154,
      "perigee_km": 487.44278490414763,
      "latitude_deg": -9.992154032777205e-06,
      "longitude_deg": 14.032138146949512,
      "height_km": 487.59760141777264,
      "semi_major_axis_km": 6866.195682656881,
      "eccentricity": 8.97e-05,
      "inclination_deg": 43.0025,
      "raan_deg": 27.7728,
      "arg_perigee_deg": 292.7087,
      "mean_anomaly_deg": 67.3669,
      "mean_motion_rev_day": 15.25908518
    },
    {
      "epoch": "2026-04-17T04:33:20.905056Z",
      "apogee_km": 488.6337728347853,
      "perigee_km": 487.4757209347563,
      "latitude_deg": -5.831909472128421e-06,
      "longitude_deg": 110.05434607047529,
      "height_km": 487.672103561126,
      "semi_major_axis_km": 6866.1917468847705,
      "eccentricity": 8.433e-05,
      "inclination_deg": 43.0029,
      "raan_deg": 23.7182,
      "arg_perigee_deg": 285.9736,
      "mean_anomaly_deg": 74.1022,
      "mean_motion_rev_day": 15.2590983
    },
    {
      "epoch": "2026-04-18T02:33:01.024704Z",
      "apogee_km": 488.53329883393144,
      "perigee_km": 487.6828457192796,
      "latitude_deg": 1.1225616895800058e-05,
      "longitude_deg": 134.07041889541634,
      "height_km": 487.76533143197685,
      "semi_major_axis_km": 6866.245072276605,
      "eccentricity": 6.193e-05,
      "inclination_deg": 43.0013,
      "raan_deg": 18.5547,
      "arg_perigee_deg": 286.2595,
      "mean_anomaly_deg": 73.8188,
      "mean_motion_rev_day": 15.25892054
    },
    {
      "epoch": "2026-04-19T09:58:10.207488Z",
      "apogee_km": 488.72415851648384,
      "perigee_km": 487.28364215559395,
      "latitude_deg": 1.0723292471022626e-05,
      "longitude_deg": 14.1193148194765,
      "height_km": 487.76396029358443,
      "semi_major_axis_km": 6866.140900336039,
      "eccentricity": 0.0001049,
      "inclination_deg": 43.0025,
      "raan_deg": 11.1822,
      "arg_perigee_deg": 271.3354,
      "mean_anomaly_deg": 88.7377,
      "mean_motion_rev_day": 15.2592678
    },
    {
      "epoch": "2026-04-20T03:15:01.873440Z",
      "apogee_km": 488.50612599295073,
      "perigee_km": 487.51396774467685,
      "latitude_deg": -8.119409627453437e-06,
      "longitude_deg": 110.13941268779976,
      "height_km": 487.7136565573498,
      "semi_major_axis_km": 6866.147046868813,
      "eccentricity": 7.225e-05,
      "inclination_deg": 43.0028,
      "raan_deg": 7.1273,
      "arg_perigee_deg": 278.4596,
      "mean_anomaly_deg": 81.6173,
      "mean_motion_rev_day": 15.25924731
    }
  ]
}